[{"OBJECT_NAME":"OBJECT A","OBJECT_ID":"2023-189A","EPOCH":"2026-03-09T22:59:06.381600","MEAN_MOTION":15.32403275,"ECCENTRICITY":0.00094831,"INCLINATION":97.4458,"RA_OF_ASC_NODE":86.5997,"ARG_OF_PERICENTER":249.5377,"MEAN_ANOMALY":110.4847,"EPHEMERIS_TYPE":0,"CLASSIFICATION_TYPE":"U","NORAD_CAT_ID":58502,"ELEMENT_SET_NO":999,"REV_AT_EPOCH":12601,"BSTAR":0.00019874471,"MEAN_MOTION_DOT":6.146e-5,"MEAN_MOTION_DDOT":0},{"OBJECT_NAME":"STARLINK-31630","OBJECT_ID":"2024-050T","EPOCH":"2026-03-09T13:39:04.940352","MEAN_MOTION":15.30200807,"ECCENTRICITY":0.0001409,"INCLINATION":53.16,"RA_OF_ASC_NODE":168.5079,"ARG_OF_PERICENTER":92.3163,"MEAN_ANOMALY":267.7999,"EPHEMERIS_TYPE":0,"CLASSIFICATION_TYPE":"U","NORAD_CAT_ID":59271,"ELEMENT_SET_NO":999,"REV_AT_EPOCH":11071,"BSTAR":-5.7526e-5,"MEAN_MOTION_DOT":-2.063e-5,"MEAN_MOTION_DDOT":0}]
